OBJECT_NAME,OBJECT_ID,EPOCH,MEAN_MOTION,ECCENTRICITY,INCLINATION,RA_OF_ASC_NODE,ARG_OF_PERICENTER,MEAN_ANOMALY,EPHEMERIS_TYPE,CLASSIFICATION_TYPE,NORAD_CAT_ID,ELEMENT_SET_NO,REV_AT_EPOCH,BSTAR,MEAN_MOTION_DOT,MEAN_MOTION_DDOT
STARLINK-37869,2026-131F,2026-06-17T18:00:02.999808,15.96910777,.00011494,97.2820,188.9802,76.2430,50.1342,0,U,69483,999,210,-.2603614E-2,-.1107172E-1,.38260644E-3
STARLINK-37873,2026-131G,2026-06-17T18:00:02.999808,15.97024990,.00011606,97.2820,188.9809,76.2701,51.9896,0,U,69484,999,210,-.25920221E-2,-.1109103E-1,.3843137E-3
STARLINK-37892,2026-131H,2026-06-17T18:00:02.999808,15.97108252,.00011498,97.2819,188.9816,78.7411,50.8476,0,U,69485,999,210,-.25572949E-2,-.1099303E-1,.37838735E-3
STARLINK-37893,2026-131J,2026-06-17T18:00:02.999808,15.97225915,.00011655,97.2818,188.9823,77.5835,53.9573,0,U,69486,999,218,-.25487385E-2,-.1102657E-1,.3810102E-3
STARLINK-37842,2026-131K,2026-06-17T20:00:01.999872,15.97137733,.0001069,97.2817,189.0737,79.0004,173.2061,0,U,69487,999,211,-.24442105E-2,-.1052755E-1,.34935296E-3
STARLINK-37449,2026-131L,2026-06-17T20:00:01.999872,15.97254920,.00010931,97.2818,189.0744,79.7938,174.4151,0,U,69488,999,220,-.24338781E-2,-.1055018E-1,.35118975E-3
STARLINK-37831,2026-131M,2026-06-17T10:00:01.999584,15.98221671,.00009334,97.2813,188.6216,90.8599,290.4087,0,U,69489,999,131,-.21761412E-2,-.995223E-2,.31852185E-3
STARLINK-37879,2026-131N,2026-06-17T20:00:01.999872,15.97486806,.00010973,97.2816,189.0761,79.1630,178.9501,0,U,69490,999,211,-.24145498E-2,-.1059963E-1,.35513589E-3
STARLINK-37856,2026-131P,2026-06-17T20:00:01.999872,15.97605672,.00011136,97.2816,189.0765,78.4450,181.6887,0,U,69491,999,217,-.24065046E-2,-.1063313E-1,.35767922E-3
STARLINK-37568,2026-131Q,2026-06-17T20:00:01.999872,15.97711152,.00010589,97.2814,189.0775,80.0615,181.8648,0,U,69492,999,220,-.2390303E-2,-.1062291E-1,.35745091E-3
STARLINK-37855,2026-131R,2026-06-17T20:00:01.999872,15.97844981,.0001051,97.2814,189.0786,80.1605,184.0670,0,U,69493,999,217,-.23873993E-2,-.1068781E-1,.36203359E-3
STARLINK-37854,2026-131S,2026-06-17T20:00:01.999872,15.97972979,.00010076,97.2812,189.0794,80.2836,186.2001,0,U,69494,999,217,-.23727484E-2,-.1069723E-1,.36313083E-3
STARLINK-37789,2026-131T,2026-06-17T20:00:01.999872,15.98089273,.00010974,97.2811,189.0801,78.8272,189.6381,0,U,69495,999,219,-.23625931E-2,-.1071991E-1,.36502099E-3
STARLINK-37839,2026-131U,2026-06-17T20:00:01.999872,15.98292119,.00010927,97.2810,189.0817,77.5969,194.4436,0,U,69496,999,217,-.23415098E-2,-.1074381E-1,.36734345E-3
STARLINK-37798,2026-131V,2026-06-17T20:00:01.999872,15.98178905,.00010853,97.2812,189.0808,79.9824,190.0040,0,U,69497,999,217,-.23538414E-2,-.1073307E-1,.36620966E-3
STARLINK-37853,2026-131W,2026-06-17T20:00:01.999872,15.98659825,.00010712,97.2810,189.0845,78.1581,200.0017,0,U,69498,999,217,-.22792962E-2,-.1067437E-1,.36442655E-3
STARLINK-37849,2026-131X,2026-06-17T20:00:01.999872,15.98575084,.00011021,97.2809,189.0837,79.5283,197.2866,0,U,69499,999,219,-.2289581E-2,-.1067223E-1,.36395159E-3
STARLINK-37835,2026-131Y,2026-06-17T10:00:01.999584,15.99244613,.00009496,97.2810,188.6283,89.1608,307.9478,0,U,69500,999,131,-.20808957E-2,-.1007312E-1,.32943535E-3
STARLINK-37843,2026-131Z,2026-06-17T20:00:01.999872,15.98482208,.00009862,97.2810,189.0833,79.4775,195.8087,0,U,69501,999,217,-.23079265E-2,-.1070204E-1,.36546324E-3
2026-132A,2026-132A,2026-06-18T16:34:09.681312,14.99046172,.0012616,97.6904,233.3466,265.0566,94.9216,0,U,69502,999,100,.43848E-4,.473E-5,0
2026-132B,2026-132B,2026-06-18T16:33:34.941600,14.99135792,.0012519,97.6935,233.3498,267.3045,92.6745,0,U,69503,999,100,.28238E-4,.284E-5,0
BRO-22,2026-132C,2026-06-18T16:29:36.837024,14.99759454,.0014025,97.6874,233.3461,278.9948,80.9688,0,U,69504,999,100,.42379E-4,.465E-5,0
2026-132D,2026-132D,2026-06-17T17:55:37.301664,15.02139837,.00133686,97.6863,232.4219,289.5250,70.4531,0,U,69505,999,86,.10621323E-3,.1338E-4,0
2026-132E,2026-132E,2026-06-18T16:22:32.022048,15.00883533,.0012659,97.6907,233.3580,301.6908,58.3081,0,U,69506,999,99,.1348E-3,.1657E-4,0
2026-132F,2026-132F,2026-06-17T14:44:22.547040,15.01610542,.00105834,97.6873,232.2826,301.3787,58.6401,0,U,69507,999,83,.6232203E-5,.2E-6,0
STARLINK-37536,2026-133A,2026-06-18T16:00:03.998880,16.04103958,.0000688,53.1593,315.2699,51.5395,280.6772,0,U,69508,999,220,-.26691E-2,-.1773487E-1,.99259E-3
STARLINK-37341,2026-133B,2026-06-18T16:00:03.998880,16.04366355,.0000662,53.1594,315.2632,56.3460,279.1004,0,U,69509,999,220,-.26183E-2,-.1767606E-1,.98956E-3
STARLINK-36536,2026-133C,2026-06-18T16:00:03.998880,16.04679146,.0000649,53.1593,315.2562,56.2866,282.5758,0,U,69510,999,214,-.25591E-2,-.1760881E-1,.98624E-3
STARLINK-37420,2026-133D,2026-06-18T16:00:03.998880,16.05359483,.0000613,53.1590,315.2412,55.0176,290.9784,0,U,69511,999,209,-.23999E-2,-.1721994E-1,.95376E-3
