STARLINK-37869          
1 69483U 26131F   26168.75003472 -.01107172  38261-3 -26036-2 0  9997
2 69483  97.2820 188.9802 0001149  76.2430  50.1342 15.96910777  2103
STARLINK-37873          
1 69484U 26131G   26168.75003472 -.01109103  38431-3 -25920-2 0  9994
2 69484  97.2820 188.9809 0001160  76.2701  51.9896 15.97024990  2102
STARLINK-37892          
1 69485U 26131H   26168.75003472 -.01099303  37839-3 -25573-2 0  9990
2 69485  97.2819 188.9816 0001149  78.7411  50.8476 15.97108252  2107
STARLINK-37893          
1 69486U 26131J   26168.75003472 -.01102657  38101-3 -25487-2 0  9995
2 69486  97.2818 188.9823 0001165  77.5835  53.9573 15.97225915  2186
STARLINK-37842          
1 69487U 26131K   26168.83335648 -.01052755  34935-3 -24442-2 0  9992
2 69487  97.2817 189.0737 0001069  79.0004 173.2061 15.97137733  2111
STARLINK-37449          
1 69488U 26131L   26168.83335648 -.01055018  35119-3 -24339-2 0  9998
2 69488  97.2818 189.0744 0001093  79.7938 174.4151 15.97254920  2202
STARLINK-37831          
1 69489U 26131M   26168.41668981 -.00995223  31852-3 -21761-2 0  9998
2 69489  97.2813 188.6216 0000933  90.8599 290.4087 15.98221671  1312
STARLINK-37879          
1 69490U 26131N   26168.83335648 -.01059963  35514-3 -24145-2 0  9998
2 69490  97.2816 189.0761 0001097  79.1630 178.9501 15.97486806  2117
STARLINK-37856          
1 69491U 26131P   26168.83335648 -.01063313  35768-3 -24065-2 0  9995
2 69491  97.2816 189.0765 0001113  78.4450 181.6887 15.97605672  2171
STARLINK-37568          
1 69492U 26131Q   26168.83335648 -.01062291  35745-3 -23903-2 0  9995
2 69492  97.2814 189.0775 0001058  80.0615 181.8648 15.97711152  2203
STARLINK-37855          
1 69493U 26131R   26168.83335648 -.01068781  36203-3 -23874-2 0  9993
2 69493  97.2814 189.0786 0001051  80.1605 184.0670 15.97844981  2172
STARLINK-37854          
1 69494U 26131S   26168.83335648 -.01069723  36313-3 -23727-2 0  9990
2 69494  97.2812 189.0794 0001007  80.2836 186.2001 15.97972979  2179
STARLINK-37789          
1 69495U 26131T   26168.83335648 -.01071991  36502-3 -23626-2 0  9999
2 69495  97.2811 189.0801 0001097  78.8272 189.6381 15.98089273  2191
STARLINK-37839          
1 69496U 26131U   26168.83335648 -.01074381  36734-3 -23415-2 0  9999
2 69496  97.2810 189.0817 0001092  77.5969 194.4436 15.98292119  2170
STARLINK-37798          
1 69497U 26131V   26168.83335648 -.01073307  36621-3 -23538-2 0  9998
2 69497  97.2812 189.0808 0001085  79.9824 190.0040 15.98178905  2170
STARLINK-37853          
1 69498U 26131W   26168.83335648 -.01067437  36443-3 -22793-2 0  9990
2 69498  97.2810 189.0845 0001071  78.1581 200.0017 15.98659825  2177
STARLINK-37849          
1 69499U 26131X   26168.83335648 -.01067223  36395-3 -22896-2 0  9994
2 69499  97.2809 189.0837 0001102  79.5283 197.2866 15.98575084  2191
STARLINK-37835          
1 69500U 26131Y   26168.41668981 -.01007312  32944-3 -20809-2 0  9991
2 69500  97.2810 188.6283 0000949  89.1608 307.9478 15.99244613  1316
STARLINK-37843          
1 69501U 26131Z   26168.83335648 -.01070204  36546-3 -23079-2 0  9993
2 69501  97.2810 189.0833 0000986  79.4775 195.8087 15.98482208  2179
2026-132A               
1 69502U 26132A   26169.69038983  .00000473  00000+0  43848-4 0  9990
2 69502  97.6904 233.3466 0012616 265.0566  94.9216 14.99046172  1007
2026-132B               
1 69503U 26132B   26169.68998775  .00000284  00000+0  28238-4 0  9990
2 69503  97.6935 233.3498 0012519 267.3045  92.6745 14.99135792  1005
BRO-22                  
1 69504U 26132C   26169.68723191  .00000465  00000+0  42379-4 0  9992
2 69504  97.6874 233.3461 0014025 278.9948  80.9688 14.99759454  1005
2026-132D               
1 69505U 26132D   26168.74695951  .00001338  00000+0  10621-3 0  9995
2 69505  97.6863 232.4219 0013368 289.5250  70.4531 15.02139837   864
2026-132E               
1 69506U 26132E   26169.68231507  .00001657  00000+0  13480-3 0  9993
2 69506  97.6907 233.3580 0012659 301.6908  58.3081 15.00883533   999
2026-132F               
1 69507U 26132F   26168.61414985  .00000020  00000+0  62322-5 0  9993
2 69507  97.6873 232.2826 0010583 301.3787  58.6401 15.01610542   830
STARLINK-37536          
1 69508U 26133A   26169.66671295 -.01773487  99259-3 -26691-2 0  9991
2 69508  53.1593 315.2699 0000688  51.5395 280.6772 16.04103958  2204
STARLINK-37341          
1 69509U 26133B   26169.66671295 -.01767606  98956-3 -26183-2 0  9997
2 69509  53.1594 315.2632 0000662  56.3460 279.1004 16.04366355  2204
STARLINK-36536          
1 69510U 26133C   26169.66671295 -.01760881  98624-3 -25591-2 0  9991
2 69510  53.1593 315.2562 0000649  56.2866 282.5758 16.04679146  2143
STARLINK-37420          
1 69511U 26133D   26169.66671295 -.01721994  95376-3 -23999-2 0  9995
2 69511  53.1590 315.2412 0000613  55.0176 290.9784 16.05359483  2093
